[{"OBJECT_NAME":"ONEWEB-0235","OBJECT_ID":"2021-045E","EPOCH":"2025-09-10T22:07:26.629536","MEAN_MOTION":13.15544201,"ECCENTRICITY":0.00013618,"INCLINATION":87.9034,"RA_OF_ASC_NODE":314.909,"ARG_OF_PERICENTER":94.712,"MEAN_ANOMALY":265.4166,"EPHEMERIS_TYPE":0,"CLASSIFICATION_TYPE":"U","NORAD_CAT_ID":48771,"ELEMENT_SET_NO":999,"REV_AT_EPOCH":20766,"BSTAR":0.0002485603,"MEAN_MOTION_DOT":1.06e-6,"MEAN_MOTION_DDOT":0},{"OBJECT_NAME":"ONEWEB-0242","OBJECT_ID":"2021-045F","EPOCH":"2025-09-11T03:26:54.024576","MEAN_MOTION":13.15549181,"ECCENTRICITY":0.00017774,"INCLINATION":87.9043,"RA_OF_ASC_NODE":314.8508,"ARG_OF_PERICENTER":91.9562,"MEAN_ANOMALY":268.1771,"EPHEMERIS_TYPE":0,"CLASSIFICATION_TYPE":"U","NORAD_CAT_ID":48772,"ELEMENT_SET_NO":999,"REV_AT_EPOCH":20773,"BSTAR":7.132198e-5,"MEAN_MOTION_DOT":4.0e-7,"MEAN_MOTION_DDOT":0},{"OBJECT_NAME":"ONEWEB-0241","OBJECT_ID":"2021-045G","EPOCH":"2025-09-10T21:40:04.719360","MEAN_MOTION":13.15548968,"ECCENTRICITY":0.00014803,"INCLINATION":87.903,"RA_OF_ASC_NODE":314.947,"ARG_OF_PERICENTER":106.3795,"MEAN_ANOMALY":253.7498,"EPHEMERIS_TYPE":0,"CLASSIFICATION_TYPE":"U","NORAD_CAT_ID":48773,"ELEMENT_SET_NO":999,"REV_AT_EPOCH":20761,"BSTAR":2.4037555e-5,"MEAN_MOTION_DOT":2.2e-7,"MEAN_MOTION_DDOT":0},{"OBJECT_NAME":"ONEWEB-0243","OBJECT_ID":"2021-045H","EPOCH":"2025-09-10T16:57:09.314784","MEAN_MOTION":13.15548995,"ECCENTRICITY":0.00014858,"INCLINATION":87.9046,"RA_OF_ASC_NODE":314.9879,"ARG_OF_PERICENTER":87.1509,"MEAN_ANOMALY":272.9791,"EPHEMERIS_TYPE":0,"CLASSIFICATION_TYPE":"U","NORAD_CAT_ID":48774,"ELEMENT_SET_NO":999,"REV_AT_EPOCH":20761,"BSTAR":0.00052996805,"MEAN_MOTION_DOT":2.12e-6,"MEAN_MOTION_DDOT":0},{"OBJECT_NAME":"ONEWEB-0222","OBJECT_ID":"2021-045J","EPOCH":"2025-09-11T03:30:17.925120","MEAN_MOTION":13.15548483,"ECCENTRICITY":0.00017334,"INCLINATION":87.9037,"RA_OF_ASC_NODE":314.8527,"ARG_OF_PERICENTER":98.5544,"MEAN_ANOMALY":261.5782,"EPHEMERIS_TYPE":0,"CLASSIFICATION_TYPE":"U","NORAD_CAT_ID":48775,"ELEMENT_SET_NO":999,"REV_AT_EPOCH":20771,"BSTAR":-0.00078684073,"MEAN_MOTION_DOT":-2.83e-6,"MEAN_MOTION_DDOT":0},{"OBJECT_NAME":"ONEWEB-0244","OBJECT_ID":"2021-045K","EPOCH":"2025-09-11T04:07:58.644192","MEAN_MOTION":13.1554907,"ECCENTRICITY":0.00018255,"INCLINATION":87.9049,"RA_OF_ASC_NODE":314.8294,"ARG_OF_PERICENTER":89.848,"MEAN_ANOMALY":270.2859,"EPHEMERIS_TYPE":0,"CLASSIFICATION_TYPE":"U","NORAD_CAT_ID":48776,"ELEMENT_SET_NO":999,"REV_AT_EPOCH":20828,"BSTAR":0.00033954378,"MEAN_MOTION_DOT":1.41e-6,"MEAN_MOTION_DDOT":0},{"OBJECT_NAME":"ONEWEB-0247","OBJECT_ID":"2021-045L","EPOCH":"2025-09-11T04:03:24.045120","MEAN_MOTION":13.15550558,"ECCENTRICITY":0.00010709,"INCLINATION":87.9033,"RA_OF_ASC_NODE":314.8996,"ARG_OF_PERICENTER":74.4975,"MEAN_ANOMALY":285.6273,"EPHEMERIS_TYPE":0,"CLASSIFICATION_TYPE":"U","NORAD_CAT_ID":48777,"ELEMENT_SET_NO":999,"REV_AT_EPOCH":20772,"BSTAR":0.00039634023,"MEAN_MOTION_DOT":1.62e-6,"MEAN_MOTION_DDOT":0},{"OBJECT_NAME":"ONEWEB-0245","OBJECT_ID":"2021-045M","EPOCH":"2025-09-10T16:59:26.795328","MEAN_MOTION":13.15548638,"ECCENTRICITY":0.0001659,"INCLINATION":87.9038,"RA_OF_ASC_NODE":314.9546,"ARG_OF_PERICENTER":101.7789,"MEAN_ANOMALY":258.3528,"EPHEMERIS_TYPE":0,"CLASSIFICATION_TYPE":"U","NORAD_CAT_ID":48778,"ELEMENT_SET_NO":999,"REV_AT_EPOCH":20763,"BSTAR":0.00082274229,"MEAN_MOTION_DOT":3.23e-6,"MEAN_MOTION_DDOT":0},{"OBJECT_NAME":"ONEWEB-0229","OBJECT_ID":"2021-045N","EPOCH":"2025-09-11T03:49:42.346560","MEAN_MOTION":13.15549833,"ECCENTRICITY":0.000176,"INCLINATION":87.9032,"RA_OF_ASC_NODE":314.865,"ARG_OF_PERICENTER":93.427,"MEAN_ANOMALY":266.7062,"EPHEMERIS_TYPE":0,"CLASSIFICATION_TYPE":"U","NORAD_CAT_ID":48779,"ELEMENT_SET_NO":999,"REV_AT_EPOCH":20772,"BSTAR":0.0004122092,"MEAN_MOTION_DOT":1.68e-6,"MEAN_MOTION_DDOT":0},{"OBJECT_NAME":"ONEWEB-0228","OBJECT_ID":"2021-045P","EPOCH":"2025-09-10T21:19:43.461408","MEAN_MOTION":13.15550289,"ECCENTRICITY":0.00017701,"INCLINATION":87.9042,"RA_OF_ASC_NODE":314.8941,"ARG_OF_PERICENTER":95.8068,"MEAN_ANOMALY":264.3264,"EPHEMERIS_TYPE":0,"CLASSIFICATION_TYPE":"U","NORAD_CAT_ID":48780,"ELEMENT_SET_NO":999,"REV_AT_EPOCH":20760,"BSTAR":-0.00027703103,"MEAN_MOTION_DOT":-9.1e-7,"MEAN_MOTION_DDOT":0},{"OBJECT_NAME":"ONEWEB-0232","OBJECT_ID":"2021-045Q","EPOCH":"2025-09-11T04:01:08.101632","MEAN_MOTION":13.15548401,"ECCENTRICITY":0.00018048,"INCLINATION":87.9035,"RA_OF_ASC_NODE":314.8313,"ARG_OF_PERICENTER":95.6527,"MEAN_ANOMALY":264.4809,"EPHEMERIS_TYPE":0,"CLASSIFICATION_TYPE":"U","NORAD_CAT_ID":48781,"ELEMENT_SET_NO":999,"REV_AT_EPOCH":20796,"BSTAR":0.00027328209,"MEAN_MOTION_DOT":1.16e-6,"MEAN_MOTION_DDOT":0},{"OBJECT_NAME":"ONEWEB-0231","OBJECT_ID":"2021-045R","EPOCH":"2025-09-11T03:29:10.103712","MEAN_MOTION":13.15549288,"ECCENTRICITY":0.00016058,"INCLINATION":87.9029,"RA_OF_ASC_NODE":314.8873,"ARG_OF_PERICENTER":92.6381,"MEAN_ANOMALY":267.4933,"EPHEMERIS_TYPE":0,"CLASSIFICATION_TYPE":"U","NORAD_CAT_ID":48782,"ELEMENT_SET_NO":999,"REV_AT_EPOCH":20765,"BSTAR":6.1177922e-5,"MEAN_MOTION_DOT":3.6e-7,"MEAN_MOTION_DDOT":0},{"OBJECT_NAME":"ONEWEB-0234","OBJECT_ID":"2021-045S","EPOCH":"2025-09-11T02:34:13.384704","MEAN_MOTION":13.15551046,"ECCENTRICITY":0.00023394,"INCLINATION":87.9039,"RA_OF_ASC_NODE":314.8637,"ARG_OF_PERICENTER":118.4276,"MEAN_ANOMALY":241.709,"EPHEMERIS_TYPE":0,"CLASSIFICATION_TYPE":"U","NORAD_CAT_ID":48783,"ELEMENT_SET_NO":999,"REV_AT_EPOCH":20778,"BSTAR":-2.0960981e-5,"MEAN_MOTION_DOT":5.0e-8,"MEAN_MOTION_DDOT":0},{"OBJECT_NAME":"ONEWEB-0238","OBJECT_ID":"2021-045T","EPOCH":"2025-09-11T04:24:08.948160","MEAN_MOTION":13.15549396,"ECCENTRICITY":0.00020642,"INCLINATION":87.9036,"RA_OF_ASC_NODE":314.8443,"ARG_OF_PERICENTER":106.4082,"MEAN_ANOMALY":253.7275,"EPHEMERIS_TYPE":0,"CLASSIFICATION_TYPE":"U","NORAD_CAT_ID":48784,"ELEMENT_SET_NO":999,"REV_AT_EPOCH":20769,"BSTAR":7.6528198e-5,"MEAN_MOTION_DOT":4.2e-7,"MEAN_MOTION_DDOT":0},{"OBJECT_NAME":"ONEWEB-0240","OBJECT_ID":"2021-045U","EPOCH":"2025-09-11T03:05:13.644960","MEAN_MOTION":13.15548104,"ECCENTRICITY":0.00015978,"INCLINATION":87.9042,"RA_OF_ASC_NODE":314.8404,"ARG_OF_PERICENTER":104.6755,"MEAN_ANOMALY":255.4552,"EPHEMERIS_TYPE":0,"CLASSIFICATION_TYPE":"U","NORAD_CAT_ID":48785,"ELEMENT_SET_NO":999,"REV_AT_EPOCH":20771,"BSTAR":-0.00026569552,"MEAN_MOTION_DOT":-8.7e-7,"MEAN_MOTION_DDOT":0},{"OBJECT_NAME":"ONEWEB-0246","OBJECT_ID":"2021-045V","EPOCH":"2025-09-10T21:28:40.176480","MEAN_MOTION":13.1554978,"ECCENTRICITY":0.00017817,"INCLINATION":87.9044,"RA_OF_ASC_NODE":314.8992,"ARG_OF_PERICENTER":92.9392,"MEAN_ANOMALY":267.1943,"EPHEMERIS_TYPE":0,"CLASSIFICATION_TYPE":"U","NORAD_CAT_ID":48786,"ELEMENT_SET_NO":999,"REV_AT_EPOCH":20755,"BSTAR":-3.0003579e-5,"MEAN_MOTION_DOT":2.0e-8,"MEAN_MOTION_DDOT":0},{"OBJECT_NAME":"ONEWEB-0210","OBJECT_ID":"2021-045W","EPOCH":"2025-09-11T02:20:44.144160","MEAN_MOTION":13.15548776,"ECCENTRICITY":0.00014649,"INCLINATION":87.9046,"RA_OF_ASC_NODE":314.8583,"ARG_OF_PERICENTER":77.1244,"MEAN_ANOMALY":283.005,"EPHEMERIS_TYPE":0,"CLASSIFICATION_TYPE":"U","NORAD_CAT_ID":48787,"ELEMENT_SET_NO":999,"REV_AT_EPOCH":20762,"BSTAR":0.00034522545,"MEAN_MOTION_DOT":1.43e-6,"MEAN_MOTION_DDOT":0},{"OBJECT_NAME":"ONEWEB-0214","OBJECT_ID":"2021-045X","EPOCH":"2025-09-11T02:33:16.228512","MEAN_MOTION":13.15548325,"ECCENTRICITY":0.00017449,"INCLINATION":87.9043,"RA_OF_ASC_NODE":314.8442,"ARG_OF_PERICENTER":82.5529,"MEAN_ANOMALY":277.5799,"EPHEMERIS_TYPE":0,"CLASSIFICATION_TYPE":"U","NORAD_CAT_ID":48788,"ELEMENT_SET_NO":999,"REV_AT_EPOCH":20759,"BSTAR":-7.4148199e-5,"MEAN_MOTION_DOT":-1.5e-7,"MEAN_MOTION_DDOT":0},{"OBJECT_NAME":"ONEWEB-0221","OBJECT_ID":"2021-045Y","EPOCH":"2025-09-11T02:43:32.481696","MEAN_MOTION":13.15550222,"ECCENTRICITY":0.00016347,"INCLINATION":87.9035,"RA_OF_ASC_NODE":314.8684,"ARG_OF_PERICENTER":95.7245,"MEAN_ANOMALY":264.4072,"EPHEMERIS_TYPE":0,"CLASSIFICATION_TYPE":"U","NORAD_CAT_ID":48789,"ELEMENT_SET_NO":999,"REV_AT_EPOCH":20768,"BSTAR":-0.00017050324,"MEAN_MOTION_DOT":-5.1e-7,"MEAN_MOTION_DDOT":0},{"OBJECT_NAME":"ONEWEB-0213","OBJECT_ID":"2021-045Z","EPOCH":"2025-09-11T04:17:06.060768","MEAN_MOTION":13.15549613,"ECCENTRICITY":0.00016189,"INCLINATION":87.9036,"RA_OF_ASC_NODE":314.8642,"ARG_OF_PERICENTER":92.2138,"MEAN_ANOMALY":267.9178,"EPHEMERIS_TYPE":0,"CLASSIFICATION_TYPE":"U","NORAD_CAT_ID":48790,"ELEMENT_SET_NO":999,"REV_AT_EPOCH":20775,"BSTAR":-7.570942e-6,"MEAN_MOTION_DOT":1.0e-7,"MEAN_MOTION_DDOT":0},{"OBJECT_NAME":"ONEWEB-0212","OBJECT_ID":"2021-045AA","EPOCH":"2025-09-11T03:44:01.309344","MEAN_MOTION":13.15548265,"ECCENTRICITY":0.00018634,"INCLINATION":87.9038,"RA_OF_ASC_NODE":314.8518,"ARG_OF_PERICENTER":98.653,"MEAN_ANOMALY":261.4811,"EPHEMERIS_TYPE":0,"CLASSIFICATION_TYPE":"U","NORAD_CAT_ID":48791,"ELEMENT_SET_NO":999,"REV_AT_EPOCH":20774,"BSTAR":0.00042992751,"MEAN_MOTION_DOT":1.75e-6,"MEAN_MOTION_DDOT":0},{"OBJECT_NAME":"ONEWEB-0227","OBJECT_ID":"2021-045AB","EPOCH":"2025-09-11T03:42:52.442496","MEAN_MOTION":13.15548298,"ECCENTRICITY":0.00016976,"INCLINATION":87.9032,"RA_OF_ASC_NODE":314.8705,"ARG_OF_PERICENTER":97.499,"MEAN_ANOMALY":262.6333,"EPHEMERIS_TYPE":0,"CLASSIFICATION_TYPE":"U","NORAD_CAT_ID":48792,"ELEMENT_SET_NO":999,"REV_AT_EPOCH":20769,"BSTAR":0.00029679574,"MEAN_MOTION_DOT":1.25e-6,"MEAN_MOTION_DDOT":0},{"OBJECT_NAME":"ONEWEB-0226","OBJECT_ID":"2021-045AC","EPOCH":"2025-09-11T03:33:44.372736","MEAN_MOTION":13.15545269,"ECCENTRICITY":0.0001594,"INCLINATION":87.9034,"RA_OF_ASC_NODE":314.8789,"ARG_OF_PERICENTER":88.497,"MEAN_ANOMALY":271.6342,"EPHEMERIS_TYPE":0,"CLASSIFICATION_TYPE":"U","NORAD_CAT_ID":48793,"ELEMENT_SET_NO":999,"REV_AT_EPOCH":20766,"BSTAR":0.001745191,"MEAN_MOTION_DOT":6.7e-6,"MEAN_MOTION_DDOT":0}]
